STARLINK-4200           
1 52876U 22062AY  26068.29564027 -.00000557  00000+0 -16940-4 0  9999
2 52876  53.2188  15.8899 0001443  98.2929 261.8227 15.08832640206001
2023-069B               
1 56732U 23069B   26068.54706144  .00006772  00000+0  42420-3 0  9992
2 56732  41.0081 274.4606 0011652 279.7432  80.2064 15.09579619155167
